OBJECT_NAME,OBJECT_ID,EPOCH,MEAN_MOTION,ECCENTRICITY,INCLINATION,RA_OF_ASC_NODE,ARG_OF_PERICENTER,MEAN_ANOMALY,EPHEMERIS_TYPE,CLASSIFICATION_TYPE,NORAD_CAT_ID,ELEMENT_SET_NO,REV_AT_EPOCH,BSTAR,MEAN_MOTION_DOT,MEAN_MOTION_DDOT
ASTRA 1N,2011-041A,2026-06-15T04:35:50.345088,1.00270489,.0005996,0.0932,44.2994,50.4343,256.9038,0,U,37775,999,4450,0,.124E-5,0
BSAT-3C (JCSAT-110R),2011-041B,2026-06-15T00:32:48.216192,1.00271278,.0000036,0.0172,7.8141,242.0351,131.6249,0,U,37776,999,5044,0,-.346E-5,0
PAKSAT-1R,2011-042A,2026-06-14T13:17:16.692288,1.00277209,.0002961,0.6820,84.6174,349.8067,65.8486,0,U,37779,999,5445,0,.16E-5,0
SES-2,2011-049A,2026-06-15T03:58:02.587872,1.00270644,.0002618,0.0592,102.9354,340.4029,152.6281,0,U,37809,999,5394,0,-.191E-5,0
ARABSAT-5C,2011-049B,2026-06-15T04:36:05.320800,1.00270867,.0003404,0.0506,12.5833,89.1156,250.7908,0,U,37810,999,5401,0,.127E-5,0
EUTELSAT 7 WEST A,2011-051A,2026-06-15T04:28:13.575072,1.00271156,.0004018,0.0628,10.0032,85.9050,227.3005,0,U,37816,999,5385,0,-.56E-6,0
QUETZSAT 1,2011-054A,2026-06-15T04:51:32.340096,1.00270750,.0002502,0.0196,32.0920,54.1012,173.1877,0,U,37826,999,4985,0,-.238E-5,0
INTELSAT 18 (IS-18),2011-056A,2026-06-15T03:38:59.064000,1.00271062,.0001541,0.0145,298.5556,144.1700,55.4592,0,U,37834,999,5379,0,.57E-6,0
EUTELSAT 16A,2011-057A,2026-06-15T04:34:50.442240,1.00273523,.0005979,0.0453,15.0969,72.1160,260.9746,0,U,37836,999,731,0,.108E-5,0
VIASAT-1,2011-059A,2026-06-15T00:23:38.718240,1.00271822,.0002022,0.0175,336.5077,105.2509,72.3583,0,U,37843,999,4730,0,-.19E-6,0
ASIASAT 7,2011-069A,2026-06-15T01:00:38.786112,1.00272680,.0001198,0.0265,71.9494,342.7640,329.2934,0,U,37933,999,4483,0,-.329E-5,0
BEIDOU-2 IGSO-5,2011-073A,2026-06-14T23:32:12.407424,1.00273141,.01139,47.6824,271.5735,221.6334,214.8644,0,U,37948,999,5311,0,-.164E-5,0
LUCH-5A,2011-074B,2026-06-14T15:11:06.454176,1.00269940,.0002142,8.7475,73.8448,21.7679,202.0514,0,U,37951,999,5302,0,-.51E-6,0
NIGCOMSAT 1R,2011-077A,2026-06-14T15:04:40.613376,1.00274160,.0002338,0.0457,133.7632,213.4006,184.4487,0,U,38014,999,5293,0,.151E-5,0
WGS F4 (USA 233),2012-003A,2026-06-15T01:16:38.720352,1.00269648,.0000753,0.0237,13.3891,274.7530,82.7733,0,U,38070,999,4412,0,0,0
SES-4,2012-007A,2026-06-15T04:24:06.471072,1.00270340,.0002643,0.0226,29.0397,70.8671,207.5944,0,U,38087,999,5220,0,-.164E-5,0
BEIDOU-2 G5,2012-008A,2026-06-15T00:31:45.026688,1.00271258,.0009136,3.5672,69.7068,272.8647,347.3319,0,U,38091,999,5234,0,.6E-6,0
MUOS-1,2012-009A,2026-06-15T04:06:38.774304,1.00270211,.0058686,5.4721,47.1567,1.6868,176.2804,0,U,38093,999,5242,0,-.127E-5,0
INTELSAT 22 (IS-22),2012-011A,2026-06-15T04:47:21.487200,1.00271298,.0001605,0.0412,54.6311,44.5210,308.2583,0,U,38098,999,716,0,0,0
APSTAR-7,2012-013A,2026-06-14T23:44:11.624352,1.00271639,.0002507,0.0132,25.3399,68.9390,241.5433,0,U,38107,999,5178,0,-.96E-6,0
YAHSAT 1B,2012-016A,2026-06-14T13:20:01.427712,1.00273912,.000223,0.0913,90.6405,15.8543,43.9574,0,U,38245,999,4558,0,.133E-5,0
AEHF-2 (USA 235),2012-019A,2026-06-15T01:00:00.254304,1.00269927,.0002368,6.6459,57.5044,17.9364,186.3377,0,U,38254,999,696,0,-.136E-5,0
JCSAT-13,2012-023A,2026-06-15T00:05:38.738112,1.00269526,.0002987,0.0169,6.0312,105.6559,277.0193,0,U,38331,999,5151,0,-.351E-5,0
VINASAT-2,2012-023B,2026-06-14T23:59:55.115808,1.00271419,.000207,0.0168,12.2956,80.9083,301.9210,0,U,38332,999,4663,0,-.324E-5,0
NIMIQ 6,2012-026A,2026-06-15T03:58:38.588160,1.00270422,.0002439,0.0199,300.8428,142.8843,148.2850,0,U,38342,999,5039,0,-.169E-5,0
ZHONGXING-2A,2012-028A,2026-06-15T01:16:38.720352,1.00270983,.0003759,1.4477,83.9099,45.4864,251.3565,0,U,38352,999,5127,0,-.289E-5,0
INTELSAT 19 (IS-19),2012-030A,2026-06-15T03:34:59.448288,1.00270880,.0002804,0.0176,347.9532,104.9165,30.3118,0,U,38356,999,5043,0,-.52E-6,0
ECHOSTAR 17,2012-035A,2026-06-14T14:18:32.065344,1.00270605,.00020652,0.0263,8.7324,74.6460,287.0508,0,U,38551,999,5103,0,0,0
METEOSAT-10 (MSG-3),2012-035B,2026-06-15T01:05:02.012352,1.00276414,.0001439,4.6666,61.0299,327.8693,251.0167,0,U,38552,999,5083,0,-.3E-7,0
SES-5,2012-036A,2026-06-15T04:31:43.241088,1.00270930,.0001722,0.0492,313.4312,134.4571,248.4961,0,U,38652,999,4443,0,.38E-6,0
INTELSAT 20 (IS-20),2012-043A,2026-06-15T04:52:21.721152,1.00271377,.0001741,0.0044,73.3145,103.2982,228.4824,0,U,38740,999,5072,0,-.2E-6,0
HYLAS 2,2012-043B,2026-06-15T04:23:45.194208,1.00270066,.0002405,2.4223,81.0923,26.4385,149.3130,0,U,38741,999,5075,0,-.255E-5,0
