ASTRA 1N                
1 37775U 11041A   26166.19155492  .00000124  00000+0  00000+0 0  9998
2 37775   0.0932  44.2994 0005996  50.4343 256.9038  1.00270489 44502
BSAT-3C (JCSAT-110R)    
1 37776U 11041B   26166.02278028 -.00000346  00000+0  00000+0 0  9999
2 37776   0.0172   7.8141 0000036 242.0351 131.6249  1.00271278 50446
PAKSAT-1R               
1 37779U 11042A   26165.55366542  .00000160  00000+0  00000+0 0  9992
2 37779   0.6820  84.6174 0002961 349.8067  65.8486  1.00277209 54459
SES-2                   
1 37809U 11049A   26166.16530773 -.00000191  00000+0  00000+0 0  9995
2 37809   0.0592 102.9354 0002618 340.4029 152.6281  1.00270644 53948
ARABSAT-5C              
1 37810U 11049B   26166.19172825  .00000127  00000+0  00000+0 0  9998
2 37810   0.0506  12.5833 0003404  89.1156 250.7908  1.00270867 54017
EUTELSAT 7 WEST A       
1 37816U 11051A   26166.18626823 -.00000056  00000+0  00000+0 0  9990
2 37816   0.0628  10.0032 0004018  85.9050 227.3005  1.00271156 53852
QUETZSAT 1              
1 37826U 11054A   26166.20245764 -.00000238  00000+0  00000+0 0  9990
2 37826   0.0196  32.0920 0002502  54.1012 173.1877  1.00270750 49854
INTELSAT 18 (IS-18)     
1 37834U 11056A   26166.15207250  .00000057  00000+0  00000+0 0  9991
2 37834   0.0145 298.5556 0001541 144.1700  55.4592  1.00271062 53798
EUTELSAT 16A            
1 37836U 11057A   26166.19086160  .00000108  00000+0  00000+0 0  9990
2 37836   0.0453  15.0969 0005979  72.1160 260.9746  1.00273523  7316
VIASAT-1                
1 37843U 11059A   26166.01642035 -.00000019  00000+0  00000+0 0  9992
2 37843   0.0175 336.5077 0002022 105.2509  72.3583  1.00271822 47304
ASIASAT 7               
1 37933U 11069A   26166.04211558 -.00000329  00000+0  00000+0 0  9992
2 37933   0.0265  71.9494 0001198 342.7640 329.2934  1.00272680 44836
BEIDOU-2 IGSO-5         
1 37948U 11073A   26165.98069916 -.00000164  00000+0  00000+0 0  9991
2 37948  47.6824 271.5735 0113900 221.6334 214.8644  1.00273141 53117
LUCH-5A                 
1 37951U 11074B   26165.63271359 -.00000051  00000+0  00000+0 0  9999
2 37951   8.7475  73.8448 0002142  21.7679 202.0514  1.00269940 53028
NIGCOMSAT 1R            
1 38014U 11077A   26165.62824784  .00000151  00000+0  00000+0 0  9998
2 38014   0.0457 133.7632 0002338 213.4006 184.4487  1.00274160 52937
WGS F4 (USA 233)        
1 38070U 12003A   26166.05322593  .00000000  00000+0  00000+0 0  9992
2 38070   0.0237  13.3891 0000753 274.7530  82.7733  1.00269648 44127
SES-4                   
1 38087U 12007A   26166.18340823 -.00000164  00000+0  00000+0 0  9996
2 38087   0.0226  29.0397 0002643  70.8671 207.5944  1.00270340 52209
BEIDOU-2 G5             
1 38091U 12008A   26166.02204892  .00000060  00000+0  00000+0 0  9994
2 38091   3.5672  69.7068 0009136 272.8647 347.3319  1.00271258 52347
MUOS-1                  
1 38093U 12009A   26166.17128211 -.00000127  00000+0  00000+0 0  9998
2 38093   5.4721  47.1567 0058686   1.6868 176.2804  1.00270211 52421
INTELSAT 22 (IS-22)     
1 38098U 12011A   26166.19955425  .00000000  00000+0  00000+0 0  9992
2 38098   0.0412  54.6311 0001605  44.5210 308.2583  1.00271298  7168
APSTAR-7                
1 38107U 12013A   26165.98902343 -.00000096  00000+0  00000+0 0  9998
2 38107   0.0132  25.3399 0002507  68.9390 241.5433  1.00271639 51789
YAHSAT 1B               
1 38245U 12016A   26165.55557208  .00000133  00000+0  00000+0 0  9994
2 38245   0.0913  90.6405 0002230  15.8543  43.9574  1.00273912 45583
AEHF-2 (USA 235)        
1 38254U 12019A   26166.04166961 -.00000136  00000+0  00000+0 0  9998
2 38254   6.6459  57.5044 0002368  17.9364 186.3377  1.00269927  6960
JCSAT-13                
1 38331U 12023A   26166.00392058 -.00000351  00000+0  00000+0 0  9992
2 38331   0.0169   6.0312 0002987 105.6559 277.0193  1.00269526 51517
VINASAT-2               
1 38332U 12023B   26165.99994347 -.00000324  00000+0  00000+0 0  9999
2 38332   0.0168  12.2956 0002070  80.9083 301.9210  1.00271419 46638
NIMIQ 6                 
1 38342U 12026A   26166.16572440 -.00000169  00000+0  00000+0 0  9996
2 38342   0.0199 300.8428 0002439 142.8843 148.2850  1.00270422 50397
ZHONGXING-2A            
1 38352U 12028A   26166.05322593 -.00000289  00000+0  00000+0 0  9992
2 38352   1.4477  83.9099 0003759  45.4864 251.3565  1.00270983 51271
INTELSAT 19 (IS-19)     
1 38356U 12030A   26166.14929917 -.00000052  00000+0  00000+0 0  9990
2 38356   0.0176 347.9532 0002804 104.9165  30.3118  1.00270880 50438
ECHOSTAR 17             
1 38551U 12035A   26165.59620446  .00000000  00000+0  00000+0 0  9997
2 38551   0.0263   8.7324 0002065  74.6460 287.0508  1.00270605 51039
METEOSAT-10 (MSG-3)     
1 38552U 12035B   26166.04516218 -.00000003  00000+0  00000+0 0  9994
2 38552   4.6666  61.0299 0001439 327.8693 251.0167  1.00276414 50838
SES-5                   
1 38652U 12036A   26166.18869492  .00000038  00000+0  00000+0 0  9993
2 38652   0.0492 313.4312 0001722 134.4571 248.4961  1.00270930 44436
INTELSAT 20 (IS-20)     
1 38740U 12043A   26166.20302918 -.00000020  00000+0  00000+0 0  9999
2 38740   0.0044  73.3145 0001741 103.2982 228.4824  1.00271377 50725
HYLAS 2                 
1 38741U 12043B   26166.18316197 -.00000255  00000+0  00000+0 0  9991
2 38741   2.4223  81.0923 0002405  26.4385 149.3130  1.00270066 50750
